#aV2010 11 15  0  0   .00000000      96 DD+AD WGS84 FIT  NGA
## 1610  86400.00000000   900.00000000 55515  .0000000000000
+   32     1  2  3  4  5  6  7  8  9 10 11 12 13 14 15 16 17
+         18 19 20 21 22 23 24 25 26 27 28 29 30 31 32  0  0
+          0  0  0  0  0  0  0  0  0  0  0  0  0  0  0  0  0
+          0  0  0  0  0  0  0  0  0  0  0  0  0  0  0  0  0
+          0  0  0  0  0  0  0  0  0  0  0  0  0  0  0  0  0
++         0  0  0  0  0  0  0  0  0  0  0  0  0  0  0  0  0
++         0  0  0  0  0  0  0  0  0  0  0  0  0  0  0  0  0
++         0  0  0  0  0  0  0  0  0  0  0  0  0  0  0  0  0
++         0  0  0  0  0  0  0  0  0  0  0  0  0  0  0  0  0
++         0  0  0  0  0  0  0  0  0  0  0  0  0  0  0  0  0
%c cc cc ccc ccc cccc cccc cccc cccc ccccc ccccc ccccc ccccc
%c cc cc ccc ccc cccc cccc cccc cccc ccccc ccccc ccccc ccccc
%f  0.0000000  0.000000000  0.00000000000  0.000000000000000
%f  0.0000000  0.000000000  0.00000000000  0.000000000000000
%i    0    0    0    0      0      0      0      0         0
%i    0    0    0    0      0      0      0      0         0
/*      NGA, ST. LOUIS,MO.                                  
/*   EPHEMERIS COMPUTED FROM  3 DAYS OF DATA                
/* CCCCCCCCCCCCCCCCCCCCCCCCCCCCCCCCCCCCCCCCCCCCCCCCCCCCCCCCC
/* CCCCCCCCCCCCCCCCCCCCCCCCCCCCCCCCCCCCCCCCCCCCCCCCCCCCCCCCC
*  2010 11 15 17 30   .00000000                                                 
P  1  -2334.402774  22748.882924 -13514.408224   -182.474368                    
V  1 -10325.087900  13682.692313  25148.901872      -.035827                    
P  2 -13093.190254 -23384.965003   1020.088890    302.566491                    
V  2   3296.739132   -480.310995  30936.756721       .024858                    
P  3  16280.244705  11612.836901 -18030.863658    635.649441                    
V  3 -21713.174068   4505.114599 -16756.738172       .052699                    
P  4  -4417.100267 -23588.971105  10788.821081    220.367966                    
V  4   9953.393563  10612.348767  27149.711618       .096893                    
P  5  -8183.765185 -14759.205873 -20497.283526    -67.876505                    
V  5  13869.426235 -22063.098281  10450.472179      -.059696                    
P  6  11412.129948  13830.469583 -19486.382140    419.643180                    
V  6 -25030.403736   2677.479266 -12472.896786      -.123306                    
P  7  11620.400096  -9632.103670 -21839.501991      -.606606                    
V  7  13965.520344  23937.494008  -3321.974439       .003385                    
P  8   3747.340084 -19059.246784 -17835.169329      6.939034                    
V  8  11027.470562  20011.603157 -19588.835903      -.000007                    
P  9 -18434.395810 -10411.627820  15505.520888     42.698613                    
V  9  -9295.602893 -18496.827958 -22673.940749       .023190                    
P 10   4098.794159 -23226.355510 -12036.383416    -57.966153                    
V 10  10269.509830 -11472.265488  26415.086227      -.009152                    
P 11  21187.136971   3932.680905  15435.677178   -104.132816                    
V 11  11736.441074  16830.507964 -19646.686802      -.028414                    
P 12 -16921.068264   1213.342733  20428.810228    -53.625048                    
V 12  12425.744875 -22713.228989  11807.944667       .035426                    
P 13  23084.919202  -6017.521827 -11859.524318    291.955219                    
V 13  14632.418117   2616.068565  27414.379194      -.010935                    
P 14  -6249.055151  14130.307192  21742.381323    107.455924                    
V 14 -27121.625207  -1921.776481  -6727.985656       .033209                    
P 15 -25264.641673  -4612.195365  -7046.171796   -182.967899                    
V 15   8901.174973  -2967.129235 -29748.238245       .045307                    
P 16   3337.541393  18548.276590 -18568.875925   -126.351506                    
V 16 -13719.487414  19388.540093  17143.401196      -.032383                    
P 17   8725.375639 -14252.334703  20703.650613    177.333623                    
V 17  26059.477573   1700.913728 -10082.542703       .010199                    
P 18 -16933.352527  19133.122250  -6210.697426    104.858684                    
V 18   1066.466483  -9147.151114 -30052.480468       .021751                    
P 19  24160.603166   7846.004100  -8296.977083    -83.445570                    
V 19 -10622.452692   1573.705880 -29103.442604      -.033679                    
P 20  18034.891972  -4239.970035  18872.859984     49.558590                    
V 20  -9936.099517  22310.994497  14465.688122      -.002147                    
P 21 -11082.449549  11645.429101 -20696.542679   -102.572062                    
V 21 -14252.980030 -23342.867382  -6025.997295      -.027006                    
P 22 -10339.098813  23939.086339   4951.793018    158.856733                    
V 22  -6304.895386   3318.520011 -30339.019973      -.006134                    
P 23  26724.784024   -364.097665   -968.949801    343.403496                    
V 23   1187.718658   2376.843216  31621.367543      -.020637                    
P 24  17895.771917  15334.002579  12588.259840    339.115032                    
V 24   5022.701995  15172.783199 -25480.065673       .034242                    
P 25 -18306.645221  14245.517444  12929.769261    -51.848066                    
V 25   6069.182546 -15446.251486  25561.665905      -.023601                    
P 26 -17485.707415 -12242.395560 -16640.977621    -51.386618                    
V 26  19852.295328    568.979037 -21633.454413      -.081193                    
P 27 -18982.391057 -15334.496397  11438.569411    208.019994                    
V 27  -5930.416798 -12102.581800 -27505.705390       .035548                    
P 28  12607.404957 -23115.026461   2450.302012      4.884030                    
V 28   3599.273656   -724.301973 -31999.510852       .018082                    
P 29 -23954.822368   5923.498440  -9696.797628    163.842871                    
V 29 -12336.566729  -3024.896783  28438.026508       .026825                    
P 30 -12930.199401  23166.935521   1039.823924    296.604141                    
V 30  -1726.763093  -2964.348938  31662.311035       .033631                    
P 31   6862.221840  24084.363165   8780.733480      9.045669                    
V 31  -7254.148238  -8403.314248  29597.473984       .037078                    
P 32  14882.292678   5294.662971  21626.313093   -132.197948                    
V 32 -14865.376893  22282.625584   5223.061299      -.084754                    
EOF
